CCSDS_OMM_VERS = 2.0
CREATION_DATE  = 
ORIGINATOR     = 

OBJECT_NAME    = SL-8 R/B
OBJECT_ID      = 1985-006B
CENTER_NAME    = EARTH
REF_FRAME      = TEME
TIME_SYSTEM    = UTC
MEAN_ELEMENT_THEORY = SGP/SGP4

EPOCH          = 2026-03-10T20:21:56.714112
MEAN_MOTION    = 14.37783860
ECCENTRICITY   = .0018401
INCLINATION    = 74.0433
RA_OF_ASC_NODE = 259.0158
ARG_OF_PERICENTER = 176.5904
MEAN_ANOMALY   = 284.6449

EPHEMERIS_TYPE = 0
CLASSIFICATION_TYPE = U
NORAD_CAT_ID   = 15483
ELEMENT_SET_NO = 999
REV_AT_EPOCH   = 15419
BSTAR          = .13177E-3
MEAN_MOTION_DOT = .371E-5
MEAN_MOTION_DDOT = 0

CCSDS_OMM_VERS = 2.0
CREATION_DATE  = 
ORIGINATOR     = 

OBJECT_NAME    = SL-12 R/B(2)
OBJECT_ID      = 1985-042D
CENTER_NAME    = EARTH
REF_FRAME      = TEME
TIME_SYSTEM    = UTC
MEAN_ELEMENT_THEORY = SGP/SGP4

EPOCH          = 2026-03-10T18:30:23.470272
MEAN_MOTION    = 14.21982645
ECCENTRICITY   = .0033187
INCLINATION    = 71.1063
RA_OF_ASC_NODE = 85.4437
ARG_OF_PERICENTER = 126.3623
MEAN_ANOMALY   = 46.0282

EPHEMERIS_TYPE = 0
CLASSIFICATION_TYPE = U
NORAD_CAT_ID   = 15772
ELEMENT_SET_NO = 999
REV_AT_EPOCH   = 11454
BSTAR          = .56979E-4
MEAN_MOTION_DOT = .79E-6
MEAN_MOTION_DDOT = 0

CCSDS_OMM_VERS = 2.0
CREATION_DATE  = 
ORIGINATOR     = 

OBJECT_NAME    = SL-14 R/B
OBJECT_ID      = 1985-069B
CENTER_NAME    = EARTH
REF_FRAME      = TEME
TIME_SYSTEM    = UTC
MEAN_ELEMENT_THEORY = SGP/SGP4

EPOCH          = 2026-03-10T19:44:08.150784
MEAN_MOTION    = 14.86434746
ECCENTRICITY   = .0018574
INCLINATION    = 82.5287
RA_OF_ASC_NODE = 23.8679
ARG_OF_PERICENTER = 183.9136
MEAN_ANOMALY   = 176.1939

EPHEMERIS_TYPE = 0
CLASSIFICATION_TYPE = U
NORAD_CAT_ID   = 15945
ELEMENT_SET_NO = 999
REV_AT_EPOCH   = 17300
BSTAR          = .76865E-4
MEAN_MOTION_DOT = .705E-5
MEAN_MOTION_DDOT = 0

CCSDS_OMM_VERS = 2.0
CREATION_DATE  = 
ORIGINATOR     = 

OBJECT_NAME    = SL-16 R/B
OBJECT_ID      = 1985-097B
CENTER_NAME    = EARTH
REF_FRAME      = TEME
TIME_SYSTEM    = UTC
MEAN_ELEMENT_THEORY = SGP/SGP4

EPOCH          = 2026-03-10T15:21:33.166944
MEAN_MOTION    = 14.16598587
ECCENTRICITY   = .0009903
INCLINATION    = 71.0026
RA_OF_ASC_NODE = 138.5540
ARG_OF_PERICENTER = 258.7161
MEAN_ANOMALY   = 253.3828

EPHEMERIS_TYPE = 0
CLASSIFICATION_TYPE = U
NORAD_CAT_ID   = 16182
ELEMENT_SET_NO = 999
REV_AT_EPOCH   = 8736
BSTAR          = -.71045E-4
MEAN_MOTION_DOT = -.19E-5
MEAN_MOTION_DDOT = 0

CCSDS_OMM_VERS = 2.0
CREATION_DATE  = 
ORIGINATOR     = 

OBJECT_NAME    = SL-14 R/B
OBJECT_ID      = 1986-006B
CENTER_NAME    = EARTH
REF_FRAME      = TEME
TIME_SYSTEM    = UTC
MEAN_ELEMENT_THEORY = SGP/SGP4

EPOCH          = 2026-03-10T14:19:56.900640
MEAN_MOTION    = 14.86816447
ECCENTRICITY   = .007505
INCLINATION    = 82.5234
RA_OF_ASC_NODE = 258.8829
ARG_OF_PERICENTER = 269.7144
MEAN_ANOMALY   = 89.5473

EPHEMERIS_TYPE = 0
CLASSIFICATION_TYPE = U
NORAD_CAT_ID   = 16496
ELEMENT_SET_NO = 999
REV_AT_EPOCH   = 14934
BSTAR          = .86122E-4
MEAN_MOTION_DOT = .833E-5
MEAN_MOTION_DDOT = 0

CCSDS_OMM_VERS = 2.0
CREATION_DATE  = 
ORIGINATOR     = 

OBJECT_NAME    = COSMOS 1743
OBJECT_ID      = 1986-034A
CENTER_NAME    = EARTH
REF_FRAME      = TEME
TIME_SYSTEM    = UTC
MEAN_ELEMENT_THEORY = SGP/SGP4

EPOCH          = 2026-03-10T17:36:15.721056
MEAN_MOTION    = 15.58628410
ECCENTRICITY   = .0001527
INCLINATION    = 82.5295
RA_OF_ASC_NODE = 72.7357
ARG_OF_PERICENTER = 282.4876
MEAN_ANOMALY   = 77.6209

EPHEMERIS_TYPE = 0
CLASSIFICATION_TYPE = U
NORAD_CAT_ID   = 16719
ELEMENT_SET_NO = 999
REV_AT_EPOCH   = 18041
BSTAR          = .50076E-3
MEAN_MOTION_DOT = .38542E-3
MEAN_MOTION_DDOT = 0

CCSDS_OMM_VERS = 2.0
CREATION_DATE  = 
ORIGINATOR     = 

OBJECT_NAME    = SL-14 R/B
OBJECT_ID      = 1986-046B
CENTER_NAME    = EARTH
REF_FRAME      = TEME
TIME_SYSTEM    = UTC
MEAN_ELEMENT_THEORY = SGP/SGP4

EPOCH          = 2026-03-10T13:09:27.287136
MEAN_MOTION    = 14.85591236
ECCENTRICITY   = .0022025
INCLINATION    = 82.4783
RA_OF_ASC_NODE = 79.3703
ARG_OF_PERICENTER = 222.3904
MEAN_ANOMALY   = 137.5612

EPHEMERIS_TYPE = 0
CLASSIFICATION_TYPE = U
NORAD_CAT_ID   = 16792
ELEMENT_SET_NO = 999
REV_AT_EPOCH   = 12653
BSTAR          = .62825E-4
MEAN_MOTION_DOT = .57E-5
MEAN_MOTION_DDOT = 0

CCSDS_OMM_VERS = 2.0
CREATION_DATE  = 
ORIGINATOR     = 

OBJECT_NAME    = SL-14 R/B
OBJECT_ID      = 1986-055B
CENTER_NAME    = EARTH
REF_FRAME      = TEME
TIME_SYSTEM    = UTC
MEAN_ELEMENT_THEORY = SGP/SGP4

EPOCH          = 2026-03-10T21:38:02.352768
MEAN_MOTION    = 14.85643850
ECCENTRICITY   = .0018077
INCLINATION    = 82.5200
RA_OF_ASC_NODE = 125.5353
ARG_OF_PERICENTER = 332.4033
MEAN_ANOMALY   = 200.5015

EPHEMERIS_TYPE = 0
CLASSIFICATION_TYPE = U
NORAD_CAT_ID   = 16882
ELEMENT_SET_NO = 999
REV_AT_EPOCH   = 11954
BSTAR          = .53386E-4
MEAN_MOTION_DOT = .488E-5
MEAN_MOTION_DDOT = 0

CCSDS_OMM_VERS = 2.0
CREATION_DATE  = 
ORIGINATOR     = 

OBJECT_NAME    = AJISAI (EGS)
OBJECT_ID      = 1986-061A
CENTER_NAME    = EARTH
REF_FRAME      = TEME
TIME_SYSTEM    = UTC
MEAN_ELEMENT_THEORY = SGP/SGP4

EPOCH          = 2026-03-10T19:47:01.000032
MEAN_MOTION    = 12.44515656
ECCENTRICITY   = .001127
INCLINATION    = 50.0081
RA_OF_ASC_NODE = 89.8586
ARG_OF_PERICENTER = 289.9401
MEAN_ANOMALY   = 70.0311

EPHEMERIS_TYPE = 0
CLASSIFICATION_TYPE = U
NORAD_CAT_ID   = 16908
ELEMENT_SET_NO = 999
REV_AT_EPOCH   = 46814
BSTAR          = -.50688E-4
MEAN_MOTION_DOT = -.105E-5
MEAN_MOTION_DDOT = 0

CCSDS_OMM_VERS = 2.0
CREATION_DATE  = 
ORIGINATOR     = 

OBJECT_NAME    = SL-14 R/B
OBJECT_ID      = 1987-024B
CENTER_NAME    = EARTH
REF_FRAME      = TEME
TIME_SYSTEM    = UTC
MEAN_ELEMENT_THEORY = SGP/SGP4

EPOCH          = 2026-03-10T12:20:08.705760
MEAN_MOTION    = 14.86132862
ECCENTRICITY   = .0016704
INCLINATION    = 82.5247
RA_OF_ASC_NODE = 91.9888
ARG_OF_PERICENTER = 256.9495
MEAN_ANOMALY   = 102.9857

EPHEMERIS_TYPE = 0
CLASSIFICATION_TYPE = U
NORAD_CAT_ID   = 17567
ELEMENT_SET_NO = 999
REV_AT_EPOCH   = 8825
BSTAR          = .59325E-4
MEAN_MOTION_DOT = .545E-5
MEAN_MOTION_DDOT = 0

CCSDS_OMM_VERS = 2.0
CREATION_DATE  = 
ORIGINATOR     = 

OBJECT_NAME    = COSMOS 1833
OBJECT_ID      = 1987-027A
CENTER_NAME    = EARTH
REF_FRAME      = TEME
TIME_SYSTEM    = UTC
MEAN_ELEMENT_THEORY = SGP/SGP4

EPOCH          = 2026-03-10T20:25:55.044192
MEAN_MOTION    = 14.13054515
ECCENTRICITY   = .0024215
INCLINATION    = 70.9221
RA_OF_ASC_NODE = 323.5777
ARG_OF_PERICENTER = 212.9036
MEAN_ANOMALY   = 147.0579

EPHEMERIS_TYPE = 0
CLASSIFICATION_TYPE = U
NORAD_CAT_ID   = 17589
ELEMENT_SET_NO = 999
REV_AT_EPOCH   = 1048
BSTAR          = -.75525E-4
MEAN_MOTION_DOT = -.19E-5
MEAN_MOTION_DDOT = 0

CCSDS_OMM_VERS = 2.0
CREATION_DATE  = 
ORIGINATOR     = 

OBJECT_NAME    = SL-16 R/B
OBJECT_ID      = 1987-027B
CENTER_NAME    = EARTH
REF_FRAME      = TEME
TIME_SYSTEM    = UTC
MEAN_ELEMENT_THEORY = SGP/SGP4

EPOCH          = 2026-03-10T19:43:09.638976
MEAN_MOTION    = 14.17166040
ECCENTRICITY   = .0003397
INCLINATION    = 71.0012
RA_OF_ASC_NODE = 274.1101
ARG_OF_PERICENTER = 140.2650
MEAN_ANOMALY   = 219.8723

EPHEMERIS_TYPE = 0
CLASSIFICATION_TYPE = U
NORAD_CAT_ID   = 17590
ELEMENT_SET_NO = 999
REV_AT_EPOCH   = 1550
BSTAR          = .91856E-4
MEAN_MOTION_DOT = .137E-5
MEAN_MOTION_DDOT = 0

CCSDS_OMM_VERS = 2.0
CREATION_DATE  = 
ORIGINATOR     = 

OBJECT_NAME    = SL-14 R/B
OBJECT_ID      = 1987-038B
CENTER_NAME    = EARTH
REF_FRAME      = TEME
TIME_SYSTEM    = UTC
MEAN_ELEMENT_THEORY = SGP/SGP4

EPOCH          = 2026-03-10T15:27:31.865184
MEAN_MOTION    = 14.85370272
ECCENTRICITY   = .0019762
INCLINATION    = 82.4998
RA_OF_ASC_NODE = 295.9087
ARG_OF_PERICENTER = 157.3640
MEAN_ANOMALY   = 202.8452

EPHEMERIS_TYPE = 0
CLASSIFICATION_TYPE = U
NORAD_CAT_ID   = 17912
ELEMENT_SET_NO = 999
REV_AT_EPOCH   = 7937
BSTAR          = .56986E-4
MEAN_MOTION_DOT = .516E-5
MEAN_MOTION_DDOT = 0

CCSDS_OMM_VERS = 2.0
CREATION_DATE  = 
ORIGINATOR     = 

OBJECT_NAME    = COSMOS 1844
OBJECT_ID      = 1987-041A
CENTER_NAME    = EARTH
REF_FRAME      = TEME
TIME_SYSTEM    = UTC
MEAN_ELEMENT_THEORY = SGP/SGP4

EPOCH          = 2026-03-10T21:14:47.396256
MEAN_MOTION    = 14.14551823
ECCENTRICITY   = .0030084
INCLINATION    = 70.9000
RA_OF_ASC_NODE = 31.6528
ARG_OF_PERICENTER = 15.9814
MEAN_ANOMALY   = 344.2250

EPHEMERIS_TYPE = 0
CLASSIFICATION_TYPE = U
NORAD_CAT_ID   = 17973
ELEMENT_SET_NO = 999
REV_AT_EPOCH   = 375
BSTAR          = -.61725E-4
MEAN_MOTION_DOT = -.167E-5
MEAN_MOTION_DDOT = 0

CCSDS_OMM_VERS = 2.0
CREATION_DATE  = 
ORIGINATOR     = 

OBJECT_NAME    = SL-14 R/B
OBJECT_ID      = 1987-055B
CENTER_NAME    = EARTH
REF_FRAME      = TEME
TIME_SYSTEM    = UTC
MEAN_ELEMENT_THEORY = SGP/SGP4

EPOCH          = 2026-03-10T19:45:01.285056
MEAN_MOTION    = 14.85631015
ECCENTRICITY   = .0021067
INCLINATION    = 82.5030
RA_OF_ASC_NODE = 347.9636
ARG_OF_PERICENTER = 14.1244
MEAN_ANOMALY   = 346.0556

EPHEMERIS_TYPE = 0
CLASSIFICATION_TYPE = U
NORAD_CAT_ID   = 18153
ELEMENT_SET_NO = 999
REV_AT_EPOCH   = 7010
BSTAR          = .7223E-4
MEAN_MOTION_DOT = .652E-5
MEAN_MOTION_DDOT = 0

